ONEWEB-0520             
1 54138U 22138AB  25105.52311595  .00000138  00000+0  31294-3 0  9994
2 54138  87.9252  29.9558 0001860  67.5229 292.6100 13.19727904120411
ONEWEB-0521             
1 54139U 22138AC  25105.48048476  .00000025  00000+0  29985-4 0  9995
2 54139  87.9251  29.9528 0002117  84.1923 275.9451 13.19726799120357
ONEWEB-0522             
1 54140U 22138AD  25105.53577962  .00000065  00000+0  12990-3 0  9991
2 54140  87.9252  29.9431 0001811  75.8838 284.2496 13.19726033120404
ONEWEB-0523             
1 54141U 22138AE  25105.61066807 -.00000003  00000+0 -39936-4 0  9996
2 54141  87.9322 359.5668 0001958 107.5845 252.5502 13.20771728122861
ONEWEB-0524             
1 54142U 22138AF  25105.44810622  .00000106  00000+0  22838-3 0  9994
2 54142  87.9322 359.6008 0000971 100.3876 259.7367 13.20771605122840
ONEWEB-0525             
1 54143U 22138AG  25105.47887818  .00000058  00000+0  11133-3 0  9991
2 54143  87.9256  29.9716 0001993  68.8062 291.3284 13.19731236120415
ONEWEB-0526             
1 54144U 22138AH  25105.51206464  .00000151  00000+0  34511-3 0  9998
2 54144  87.9251  29.9546 0001864  75.7688 284.3652 13.19722991120396
ONEWEB-0529             
1 54145U 22138AJ  25105.51522684 -.00003308  00000+0 -82960-2 0  9993
2 54145  87.9282  29.9924 0002151  66.6264 293.5095 13.19745084120414
