<?xml version="1.0" encoding="UTF-8"?>
<ndm xmlns:xsi="http://www.w3.org/2001/XMLSchema-instance" xsi:noNamespaceSchemaLocation="https://sanaregistry.org/r/ndmxml_unqualified/ndmxml-2.0.0-master-2.0.xsd">
<omm id="CCSDS_OMM_VERS" version="2.0">
<header><CREATION_DATE/><ORIGINATOR/></header><body><segment><metadata><OBJECT_NAME>ONEWEB-0520</OBJECT_NAME><OBJECT_ID>2022-138AB</OBJECT_ID><CENTER_NAME>EARTH</CENTER_NAME><REF_FRAME>TEME</REF_FRAME><TIME_SYSTEM>UTC</TIME_SYSTEM><MEAN_ELEMENT_THEORY>SGP4</MEAN_ELEMENT_THEORY></metadata><data><meanElements><EPOCH>2025-04-15T12:33:17.218080</EPOCH><MEAN_MOTION>13.19727904</MEAN_MOTION><ECCENTRICITY>.000186</ECCENTRICITY><INCLINATION>87.9252</INCLINATION><RA_OF_ASC_NODE>29.9558</RA_OF_ASC_NODE><ARG_OF_PERICENTER>67.5229</ARG_OF_PERICENTER><MEAN_ANOMALY>292.6100</MEAN_ANOMALY></meanElements><tleParameters><EPHEMERIS_TYPE>0</EPHEMERIS_TYPE><CLASSIFICATION_TYPE>U</CLASSIFICATION_TYPE><NORAD_CAT_ID>54138</NORAD_CAT_ID><ELEMENT_SET_NO>999</ELEMENT_SET_NO><REV_AT_EPOCH>12041</REV_AT_EPOCH><BSTAR>.31294E-3</BSTAR><MEAN_MOTION_DOT>.138E-5</MEAN_MOTION_DOT><MEAN_MOTION_DDOT>0</MEAN_MOTION_DDOT></tleParameters></data></segment></body></omm>
<omm id="CCSDS_OMM_VERS" version="2.0">
<header><CREATION_DATE/><ORIGINATOR/></header><body><segment><metadata><OBJECT_NAME>ONEWEB-0521</OBJECT_NAME><OBJECT_ID>2022-138AC</OBJECT_ID><CENTER_NAME>EARTH</CENTER_NAME><REF_FRAME>TEME</REF_FRAME><TIME_SYSTEM>UTC</TIME_SYSTEM><MEAN_ELEMENT_THEORY>SGP4</MEAN_ELEMENT_THEORY></metadata><data><meanElements><EPOCH>2025-04-15T11:31:53.883264</EPOCH><MEAN_MOTION>13.19726799</MEAN_MOTION><ECCENTRICITY>.0002117</ECCENTRICITY><INCLINATION>87.9251</INCLINATION><RA_OF_ASC_NODE>29.9528</RA_OF_ASC_NODE><ARG_OF_PERICENTER>84.1923</ARG_OF_PERICENTER><MEAN_ANOMALY>275.9451</MEAN_ANOMALY></meanElements><tleParameters><EPHEMERIS_TYPE>0</EPHEMERIS_TYPE><CLASSIFICATION_TYPE>U</CLASSIFICATION_TYPE><NORAD_CAT_ID>54139</NORAD_CAT_ID><ELEMENT_SET_NO>999</ELEMENT_SET_NO><REV_AT_EPOCH>12035</REV_AT_EPOCH><BSTAR>.29985E-4</BSTAR><MEAN_MOTION_DOT>.25E-6</MEAN_MOTION_DOT><MEAN_MOTION_DDOT>0</MEAN_MOTION_DDOT></tleParameters></data></segment></body></omm>
<omm id="CCSDS_OMM_VERS" version="2.0">
<header><CREATION_DATE/><ORIGINATOR/></header><body><segment><metadata><OBJECT_NAME>ONEWEB-0522</OBJECT_NAME><OBJECT_ID>2022-138AD</OBJECT_ID><CENTER_NAME>EARTH</CENTER_NAME><REF_FRAME>TEME</REF_FRAME><TIME_SYSTEM>UTC</TIME_SYSTEM><MEAN_ELEMENT_THEORY>SGP4</MEAN_ELEMENT_THEORY></metadata><data><meanElements><EPOCH>2025-04-15T12:51:31.359168</EPOCH><MEAN_MOTION>13.19726033</MEAN_MOTION><ECCENTRICITY>.0001811</ECCENTRICITY><INCLINATION>87.9252</INCLINATION><RA_OF_ASC_NODE>29.9431</RA_OF_ASC_NODE><ARG_OF_PERICENTER>75.8838</ARG_OF_PERICENTER><MEAN_ANOMALY>284.2496</MEAN_ANOMALY></meanElements><tleParameters><EPHEMERIS_TYPE>0</EPHEMERIS_TYPE><CLASSIFICATION_TYPE>U</CLASSIFICATION_TYPE><NORAD_CAT_ID>54140</NORAD_CAT_ID><ELEMENT_SET_NO>999</ELEMENT_SET_NO><REV_AT_EPOCH>12040</REV_AT_EPOCH><BSTAR>.1299E-3</BSTAR><MEAN_MOTION_DOT>.65E-6</MEAN_MOTION_DOT><MEAN_MOTION_DDOT>0</MEAN_MOTION_DDOT></tleParameters></data></segment></body></omm>
<omm id="CCSDS_OMM_VERS" version="2.0">
<header><CREATION_DATE/><ORIGINATOR/></header><body><segment><metadata><OBJECT_NAME>ONEWEB-0523</OBJECT_NAME><OBJECT_ID>2022-138AE</OBJECT_ID><CENTER_NAME>EARTH</CENTER_NAME><REF_FRAME>TEME</REF_FRAME><TIME_SYSTEM>UTC</TIME_SYSTEM><MEAN_ELEMENT_THEORY>SGP4</MEAN_ELEMENT_THEORY></metadata><data><meanElements><EPOCH>2025-04-15T14:39:21.721248</EPOCH><MEAN_MOTION>13.20771728</MEAN_MOTION><ECCENTRICITY>.0001958</ECCENTRICITY><INCLINATION>87.9322</INCLINATION><RA_OF_ASC_NODE>359.5668</RA_OF_ASC_NODE><ARG_OF_PERICENTER>107.5845</ARG_OF_PERICENTER><MEAN_ANOMALY>252.5502</MEAN_ANOMALY></meanElements><tleParameters><EPHEMERIS_TYPE>0</EPHEMERIS_TYPE><CLASSIFICATION_TYPE>U</CLASSIFICATION_TYPE><NORAD_CAT_ID>54141</NORAD_CAT_ID><ELEMENT_SET_NO>999</ELEMENT_SET_NO><REV_AT_EPOCH>12286</REV_AT_EPOCH><BSTAR>-.39936E-4</BSTAR><MEAN_MOTION_DOT>-.3E-7</MEAN_MOTION_DOT><MEAN_MOTION_DDOT>0</MEAN_MOTION_DDOT></tleParameters></data></segment></body></omm>
<omm id="CCSDS_OMM_VERS" version="2.0">
<header><CREATION_DATE/><ORIGINATOR/></header><body><segment><metadata><OBJECT_NAME>ONEWEB-0524</OBJECT_NAME><OBJECT_ID>2022-138AF</OBJECT_ID><CENTER_NAME>EARTH</CENTER_NAME><REF_FRAME>TEME</REF_FRAME><TIME_SYSTEM>UTC</TIME_SYSTEM><MEAN_ELEMENT_THEORY>SGP4</MEAN_ELEMENT_THEORY></metadata><data><meanElements><EPOCH>2025-04-15T10:45:16.377408</EPOCH><MEAN_MOTION>13.20771605</MEAN_MOTION><ECCENTRICITY>.0000971</ECCENTRICITY><INCLINATION>87.9322</INCLINATION><RA_OF_ASC_NODE>359.6008</RA_OF_ASC_NODE><ARG_OF_PERICENTER>100.3876</ARG_OF_PERICENTER><MEAN_ANOMALY>259.7367</MEAN_ANOMALY></meanElements><tleParameters><EPHEMERIS_TYPE>0</EPHEMERIS_TYPE><CLASSIFICATION_TYPE>U</CLASSIFICATION_TYPE><NORAD_CAT_ID>54142</NORAD_CAT_ID><ELEMENT_SET_NO>999</ELEMENT_SET_NO><REV_AT_EPOCH>12284</REV_AT_EPOCH><BSTAR>.22838E-3</BSTAR><MEAN_MOTION_DOT>.106E-5</MEAN_MOTION_DOT><MEAN_MOTION_DDOT>0</MEAN_MOTION_DDOT></tleParameters></data></segment></body></omm>
<omm id="CCSDS_OMM_VERS" version="2.0">
<header><CREATION_DATE/><ORIGINATOR/></header><body><segment><metadata><OBJECT_NAME>ONEWEB-0525</OBJECT_NAME><OBJECT_ID>2022-138AG</OBJECT_ID><CENTER_NAME>EARTH</CENTER_NAME><REF_FRAME>TEME</REF_FRAME><TIME_SYSTEM>UTC</TIME_SYSTEM><MEAN_ELEMENT_THEORY>SGP4</MEAN_ELEMENT_THEORY></metadata><data><meanElements><EPOCH>2025-04-15T11:29:35.074752</EPOCH><MEAN_MOTION>13.19731236</MEAN_MOTION><ECCENTRICITY>.0001993</ECCENTRICITY><INCLINATION>87.9256</INCLINATION><RA_OF_ASC_NODE>29.9716</RA_OF_ASC_NODE><ARG_OF_PERICENTER>68.8062</ARG_OF_PERICENTER><MEAN_ANOMALY>291.3284</MEAN_ANOMALY></meanElements><tleParameters><EPHEMERIS_TYPE>0</EPHEMERIS_TYPE><CLASSIFICATION_TYPE>U</CLASSIFICATION_TYPE><NORAD_CAT_ID>54143</NORAD_CAT_ID><ELEMENT_SET_NO>999</ELEMENT_SET_NO><REV_AT_EPOCH>12041</REV_AT_EPOCH><BSTAR>.11133E-3</BSTAR><MEAN_MOTION_DOT>.58E-6</MEAN_MOTION_DOT><MEAN_MOTION_DDOT>0</MEAN_MOTION_DDOT></tleParameters></data></segment></body></omm>
<omm id="CCSDS_OMM_VERS" version="2.0">
<header><CREATION_DATE/><ORIGINATOR/></header><body><segment><metadata><OBJECT_NAME>ONEWEB-0526</OBJECT_NAME><OBJECT_ID>2022-138AH</OBJECT_ID><CENTER_NAME>EARTH</CENTER_NAME><REF_FRAME>TEME</REF_FRAME><TIME_SYSTEM>UTC</TIME_SYSTEM><MEAN_ELEMENT_THEORY>SGP4</MEAN_ELEMENT_THEORY></metadata><data><meanElements><EPOCH>2025-04-15T12:17:22.384896</EPOCH><MEAN_MOTION>13.19722991</MEAN_MOTION><ECCENTRICITY>.0001864</ECCENTRICITY><INCLINATION>87.9251</INCLINATION><RA_OF_ASC_NODE>29.9546</RA_OF_ASC_NODE><ARG_OF_PERICENTER>75.7688</ARG_OF_PERICENTER><MEAN_ANOMALY>284.3652</MEAN_ANOMALY></meanElements><tleParameters><EPHEMERIS_TYPE>0</EPHEMERIS_TYPE><CLASSIFICATION_TYPE>U</CLASSIFICATION_TYPE><NORAD_CAT_ID>54144</NORAD_CAT_ID><ELEMENT_SET_NO>999</ELEMENT_SET_NO><REV_AT_EPOCH>12039</REV_AT_EPOCH><BSTAR>.34511E-3</BSTAR><MEAN_MOTION_DOT>.151E-5</MEAN_MOTION_DOT><MEAN_MOTION_DDOT>0</MEAN_MOTION_DDOT></tleParameters></data></segment></body></omm>
<omm id="CCSDS_OMM_VERS" version="2.0">
<header><CREATION_DATE/><ORIGINATOR/></header><body><segment><metadata><OBJECT_NAME>ONEWEB-0529</OBJECT_NAME><OBJECT_ID>2022-138AJ</OBJECT_ID><CENTER_NAME>EARTH</CENTER_NAME><REF_FRAME>TEME</REF_FRAME><TIME_SYSTEM>UTC</TIME_SYSTEM><MEAN_ELEMENT_THEORY>SGP4</MEAN_ELEMENT_THEORY></metadata><data><meanElements><EPOCH>2025-04-15T12:21:55.598976</EPOCH><MEAN_MOTION>13.19745084</MEAN_MOTION><ECCENTRICITY>.0002151</ECCENTRICITY><INCLINATION>87.9282</INCLINATION><RA_OF_ASC_NODE>29.9924</RA_OF_ASC_NODE><ARG_OF_PERICENTER>66.6264</ARG_OF_PERICENTER><MEAN_ANOMALY>293.5095</MEAN_ANOMALY></meanElements><tleParameters><EPHEMERIS_TYPE>0</EPHEMERIS_TYPE><CLASSIFICATION_TYPE>U</CLASSIFICATION_TYPE><NORAD_CAT_ID>54145</NORAD_CAT_ID><ELEMENT_SET_NO>999</ELEMENT_SET_NO><REV_AT_EPOCH>12041</REV_AT_EPOCH><BSTAR>-.8296E-2</BSTAR><MEAN_MOTION_DOT>-.3308E-4</MEAN_MOTION_DOT><MEAN_MOTION_DDOT>0</MEAN_MOTION_DDOT></tleParameters></data></segment></body></omm>

</ndm>
